GLOBALSTAR M080         
1 38041U 11080B   26198.98741736 -.00000079  00000+0  14100-3 0  9992
2 38041  52.0066 285.2470 0000294  77.1310  94.5763 12.62257585672775
GLOBALSTAR M082         
1 38042U 11080C   26198.52240174 -.00000089  00000+0  80848-4 0  9997
2 38042  52.0060 242.1663 0000194  76.2364  71.3480 12.62264325673426
GLOBALSTAR M092         
1 38043U 11080D   26198.81655208 -.00000082  00000+0  12038-3 0  9996
2 38043  52.0105 331.6680 0000760 106.5467  57.7424 12.62267883671910
GLOBALSTAR M090         
1 38044U 11080E   26198.12809628 -.00000079  00000+0  13632-3 0  9995
2 38044  52.0103 237.3317 0000413  89.1139 304.6303 12.62269629673490
GLOBALSTAR M086         
1 38045U 11080F   26198.81300501 -.00000101  00000+0  16479-4 0  9997
2 38045  51.9873 235.1255 0001467 115.5282  55.9605 12.62287873673529
GLOBALSTAR M097         
1 39072U 13005A   26198.88629406 -.00000114  00000+0 -57590-4 0  9996
2 39072  52.0028 149.8839 0000500  43.0531 317.0375 12.62271305620781
GLOBALSTAR M093         
1 39073U 13005B   26198.85953932 -.00000100  00000+0  22036-4 0  9999
2 39073  52.0095 143.3242 0000722  48.8066 311.2863 12.62266346620737
GLOBALSTAR M094         
1 39074U 13005C   26198.78021282 -.00000094  00000+0  57056-4 0  9998
2 39074  51.9969  57.6527 0001021  66.6173 293.4801 12.62264193622338
GLOBALSTAR M096         
1 39075U 13005D   26198.87292230 -.00000088  00000+0  90254-4 0  9992
2 39075  52.0073 106.1957 0000796  47.6461 312.4473 12.62265732621269
GLOBALSTAR M078         
1 39076U 13005E   26198.92524254 -.00000122  00000+0 -10262-3 0  9993
2 39076  51.9845 190.0044 0000901 345.8599  14.2242 12.62260116619895
GLOBALSTAR M095         
1 39077U 13005F   26198.95191655 -.00000123  00000+0 -10614-3 0  9994
2 39077  52.0053 187.5703 0000528  17.8230 342.2655 12.62264099619756
GLOBALSTAR M087         
1 52888U 22064A   26198.80664880 -.00000081  00000+0  12788-3 0  9999
2 52888  52.0016 329.2338 0000898  88.1090 271.9879 12.62269460195004
